COSMOS 2361 [-]         
1 25590U 98076A   22215.86798802  .00000066  00000+0  54373-4 0  9998
2 25590  82.9358 171.1137 0033010  77.1638 312.3681 13.73024449182741
COSMOS 2378 [-]         
1 26818U 01023A   22216.53516965  .00000015  00000+0  20544-7 0  9991
2 26818  82.9282 188.5683 0033818  23.2360 337.0322 13.73972219 60916
COSMOS 2389 [-]         
1 27436U 02026A   22216.19031578  .00000045  00000+0  31912-4 0  9997
2 27436  82.9524 134.6833 0045063 241.9013 279.3565 13.74979238 12980
COSMOS 2398 [-]         
1 27818U 03023A   22216.46652655  .00000055  00000+0  43693-4 0  9994
2 27818  82.9484  96.2317 0030113 279.6150  80.1606 13.72214772959975
COSMOS 2407 [+]         
1 28380U 04028A   22216.49553095  .00000018  00000+0  29094-5 0  9995
2 28380  82.9591  40.8538 0037951 242.6204 117.1086 13.76117293905761
COSMOS 2414 [+]         
1 28521U 05002A   22216.48789532  .00000039  00000+0  19296-4 0  9996
2 28521  82.9484  31.9134 0041346  38.3339 322.0748 13.87661439888214
COSMOS 2429 [-]         
1 32052U 07038A   22216.40166464  .00000046  00000+0  32337-4 0  9995
2 32052  82.9826 166.9881 0037414 218.7917 141.0553 13.74965609747582
COSMOS 2454 [-]         
1 35635U 09039A   22216.46568394  .00000029  00000+0  11002-4 0  9999
2 35635  82.9557  18.1882 0019215 345.3754  14.6843 13.89691185661366
COSMOS 2463 [+]         
1 36519U 10017A   22216.07485587 -.00000011  00000+0 -29781-4 0  9994
2 36519  82.9596 207.8225 0037668  90.8153 334.9603 13.71477350614318
